STARLINK-1712           
1 46581U 20070BB  26073.51294579  .01874173  33228-2  14651-2 0  9993
2 46581  53.0229  55.0370 0001409  61.8689 298.2489 16.14920732301639
STARLINK-1814           
1 46712U 20073AU  26073.93494729  .00661819  21006-3  12123-2 0  9991
2 46712  53.0348 157.7658 0010634   0.9768 359.1281 16.00662783298768
STARLINK-1955           
1 47556U 21009J   26073.63694039  .01234314  90697-3  16060-2 0  9994
2 47556  53.0289 299.3734 0005961 237.9722 122.0732 16.06576644282381
STARLINK-1971           
1 47572U 21009AA  26073.91668981  .00440010  86171-4  12666-2 0  9992
2 47572  53.0365 295.3801 0002482 281.6587 129.1855 15.92568530  6034
STARLINK-2022           
1 47643U 21012Z   26073.91124450  .00767674  28820-3  13638-2 0  9997
2 47643  53.0087 310.6667 0004808 226.5356 133.5274 16.01290683282134
STARLINK-2488           
1 48145U 21027BF  26073.91668981  .00813818  31730-3  16040-2 0  9999
2 48145  53.0353  81.1958 0004025  96.6031 298.0360 15.99498171  5929
STARLINK-3050           
1 49180U 21082BC  26073.56375436  .01349900  10773-2  20870-2 0  9997
2 49180  69.9939 247.9640 0003726 261.0106  99.0686 16.04267319248725
STARLINK-3149           
1 49423U 21104R   26073.91668981  .01191125  66436-3  33214-2 0  9999
2 49423  53.2145 193.2771 0000674  59.4829 130.7339 15.93245361  5817
STARLINK-3258           
1 50206U 21125BC  26073.84725321  .01136154  74019-3  15265-2 0  9990
2 50206  53.2078 200.4371 0000177 229.8611 130.2407 16.06066146235655
TRANSPORTER-3 OBJECT CN 
1 51068U 22002CN  26070.45874509  .00466381  87607-4  13253-2 0  9999
2 51068  97.2916 154.5314 0004678 253.1627 106.9135 15.93315490231977
STARLINK-3767           
1 52376U 22045AX  26074.10688630  .02324382  11948-4  77044-3 0  9993
2 52376  53.2051 143.2806 0002383 327.8725  32.2171 16.25147507217043
STARLINK-3855           
1 52474U 22049Z   26074.04668265  .01010630  58921-3  11875-2 0  9998
2 52474  53.2131   8.9186 0001932 101.4140 258.7112 16.08156202213426
NUSAT-28 (ALICE LEE)    
1 52747U 22057R   26073.93330502  .01654948  23790-2  13184-2 0  9993
2 52747  97.5008 224.5800 0009757 279.7743  80.2440 16.15010893212898
NUSAT-31 (RUBY PAYNE-S) 
1 52752U 22057W   26073.93709105  .00499487  10491-3  12212-2 0  9998
2 52752  97.6379 244.1078 0005274 284.8331  75.2360 15.96141706212803
STARLINK-4038           
1 53150U 22083U   26073.91668981  .00539776  13816-3  10456-2 0  9992
2 53150  53.2003  93.3534 0010390  30.9378 117.5996 15.99702687  5905
STARLINK-4404           
1 53195U 22084G   26073.91668981  .00575724  13920-3  14771-2 0  9995
2 53195  97.6101 160.5110 0000869  19.3969 110.7027 15.95276194  5959
