[{"OBJECT_NAME":"STARLINK-1712","OBJECT_ID":"2020-070BB","EPOCH":"2026-03-14T12:18:38.516256","MEAN_MOTION":16.14920732,"ECCENTRICITY":0.00014093,"INCLINATION":53.0229,"RA_OF_ASC_NODE":55.037,"ARG_OF_PERICENTER":61.8689,"MEAN_ANOMALY":298.2489,"EPHEMERIS_TYPE":0,"CLASSIFICATION_TYPE":"U","NORAD_CAT_ID":46581,"ELEMENT_SET_NO":999,"REV_AT_EPOCH":30163,"BSTAR":0.0014650582,"MEAN_MOTION_DOT":0.01874173,"MEAN_MOTION_DDOT":0.003322787},{"OBJECT_NAME":"STARLINK-1814","OBJECT_ID":"2020-073AU","EPOCH":"2026-03-14T22:26:19.445856","MEAN_MOTION":16.00662783,"ECCENTRICITY":0.00106344,"INCLINATION":53.0348,"RA_OF_ASC_NODE":157.7658,"ARG_OF_PERICENTER":0.9768,"MEAN_ANOMALY":359.1281,"EPHEMERIS_TYPE":0,"CLASSIFICATION_TYPE":"U","NORAD_CAT_ID":46712,"ELEMENT_SET_NO":999,"REV_AT_EPOCH":29876,"BSTAR":0.001212311,"MEAN_MOTION_DOT":0.00661819,"MEAN_MOTION_DDOT":0.00021006136},{"OBJECT_NAME":"STARLINK-1955","OBJECT_ID":"2021-009J","EPOCH":"2026-03-14T15:17:11.649696","MEAN_MOTION":16.06576644,"ECCENTRICITY":0.00059612,"INCLINATION":53.0289,"RA_OF_ASC_NODE":299.3734,"ARG_OF_PERICENTER":237.9722,"MEAN_ANOMALY":122.0732,"EPHEMERIS_TYPE":0,"CLASSIFICATION_TYPE":"U","NORAD_CAT_ID":47556,"ELEMENT_SET_NO":999,"REV_AT_EPOCH":28238,"BSTAR":0.0016060041,"MEAN_MOTION_DOT":0.01234314,"MEAN_MOTION_DDOT":0.00090696958},{"OBJECT_NAME":"STARLINK-1971","OBJECT_ID":"2021-009AA","EPOCH":"2026-03-14T22:00:01.999584","MEAN_MOTION":15.9256853,"ECCENTRICITY":0.00024824,"INCLINATION":53.0365,"RA_OF_ASC_NODE":295.3801,"ARG_OF_PERICENTER":281.6587,"MEAN_ANOMALY":129.1855,"EPHEMERIS_TYPE":0,"CLASSIFICATION_TYPE":"U","NORAD_CAT_ID":47572,"ELEMENT_SET_NO":999,"REV_AT_EPOCH":603,"BSTAR":0.0012665768,"MEAN_MOTION_DOT":0.0044001,"MEAN_MOTION_DDOT":8.6171478e-5},{"OBJECT_NAME":"STARLINK-2022","OBJECT_ID":"2021-012Z","EPOCH":"2026-03-14T21:52:11.524800","MEAN_MOTION":16.01290683,"ECCENTRICITY":0.00048088,"INCLINATION":53.0087,"RA_OF_ASC_NODE":310.6667,"ARG_OF_PERICENTER":226.5356,"MEAN_ANOMALY":133.5274,"EPHEMERIS_TYPE":0,"CLASSIFICATION_TYPE":"U","NORAD_CAT_ID":47643,"ELEMENT_SET_NO":999,"REV_AT_EPOCH":28213,"BSTAR":0.0013638255,"MEAN_MOTION_DOT":0.00767674,"MEAN_MOTION_DDOT":0.00028820425},{"OBJECT_NAME":"STARLINK-2488","OBJECT_ID":"2021-027BF","EPOCH":"2026-03-14T22:00:01.999584","MEAN_MOTION":15.99498171,"ECCENTRICITY":0.00040252,"INCLINATION":53.0353,"RA_OF_ASC_NODE":81.1958,"ARG_OF_PERICENTER":96.6031,"MEAN_ANOMALY":298.036,"EPHEMERIS_TYPE":0,"CLASSIFICATION_TYPE":"U","NORAD_CAT_ID":48145,"ELEMENT_SET_NO":999,"REV_AT_EPOCH":592,"BSTAR":0.001604031,"MEAN_MOTION_DOT":0.00813818,"MEAN_MOTION_DDOT":0.00031729644},{"OBJECT_NAME":"STARLINK-3050","OBJECT_ID":"2021-082BC","EPOCH":"2026-03-14T13:31:48.376704","MEAN_MOTION":16.04267319,"ECCENTRICITY":0.00037268,"INCLINATION":69.9939,"RA_OF_ASC_NODE":247.964,"ARG_OF_PERICENTER":261.0106,"MEAN_ANOMALY":99.0686,"EPHEMERIS_TYPE":0,"CLASSIFICATION_TYPE":"U","NORAD_CAT_ID":49180,"ELEMENT_SET_NO":999,"REV_AT_EPOCH":24872,"BSTAR":0.0020869654,"MEAN_MOTION_DOT":0.013499,"MEAN_MOTION_DDOT":0.0010772783},{"OBJECT_NAME":"STARLINK-3149","OBJECT_ID":"2021-104R","EPOCH":"2026-03-14T22:00:01.999584","MEAN_MOTION":15.93245361,"ECCENTRICITY":6.745e-5,"INCLINATION":53.2145,"RA_OF_ASC_NODE":193.2771,"ARG_OF_PERICENTER":59.4829,"MEAN_ANOMALY":130.7339,"EPHEMERIS_TYPE":0,"CLASSIFICATION_TYPE":"U","NORAD_CAT_ID":49423,"ELEMENT_SET_NO":999,"REV_AT_EPOCH":581,"BSTAR":0.0033213788,"MEAN_MOTION_DOT":0.01191125,"MEAN_MOTION_DDOT":0.00066435639},{"OBJECT_NAME":"STARLINK-3258","OBJECT_ID":"2021-125BC","EPOCH":"2026-03-14T20:20:02.677344","MEAN_MOTION":16.06066146,"ECCENTRICITY":1.77e-5,"INCLINATION":53.2078,"RA_OF_ASC_NODE":200.4371,"ARG_OF_PERICENTER":229.8611,"MEAN_ANOMALY":130.2407,"EPHEMERIS_TYPE":0,"CLASSIFICATION_TYPE":"U","NORAD_CAT_ID":50206,"ELEMENT_SET_NO":999,"REV_AT_EPOCH":23565,"BSTAR":0.0015265,"MEAN_MOTION_DOT":0.01136154,"MEAN_MOTION_DDOT":0.00074019},{"OBJECT_NAME":"TRANSPORTER-3 OBJECT CN","OBJECT_ID":"2022-002CN","EPOCH":"2026-03-11T11:00:35.575776","MEAN_MOTION":15.9331549,"ECCENTRICITY":0.0004678,"INCLINATION":97.2916,"RA_OF_ASC_NODE":154.5314,"ARG_OF_PERICENTER":253.1627,"MEAN_ANOMALY":106.9135,"EPHEMERIS_TYPE":0,"CLASSIFICATION_TYPE":"U","NORAD_CAT_ID":51068,"ELEMENT_SET_NO":999,"REV_AT_EPOCH":23197,"BSTAR":0.0013253,"MEAN_MOTION_DOT":0.00466381,"MEAN_MOTION_DDOT":8.7607e-5},{"OBJECT_NAME":"STARLINK-3767","OBJECT_ID":"2022-045AX","EPOCH":"2026-03-15T02:33:54.976320","MEAN_MOTION":16.25147507,"ECCENTRICITY":0.0002383,"INCLINATION":53.2051,"RA_OF_ASC_NODE":143.2806,"ARG_OF_PERICENTER":327.8725,"MEAN_ANOMALY":32.2171,"EPHEMERIS_TYPE":0,"CLASSIFICATION_TYPE":"U","NORAD_CAT_ID":52376,"ELEMENT_SET_NO":999,"REV_AT_EPOCH":21704,"BSTAR":0.00077044,"MEAN_MOTION_DOT":0.02324382,"MEAN_MOTION_DDOT":1.1948e-5},{"OBJECT_NAME":"STARLINK-3855","OBJECT_ID":"2022-049Z","EPOCH":"2026-03-15T01:07:13.380960","MEAN_MOTION":16.08156202,"ECCENTRICITY":0.0001932,"INCLINATION":53.2131,"RA_OF_ASC_NODE":8.9186,"ARG_OF_PERICENTER":101.414,"MEAN_ANOMALY":258.7112,"EPHEMERIS_TYPE":0,"CLASSIFICATION_TYPE":"U","NORAD_CAT_ID":52474,"ELEMENT_SET_NO":999,"REV_AT_EPOCH":21342,"BSTAR":0.0011875,"MEAN_MOTION_DOT":0.0101063,"MEAN_MOTION_DDOT":0.00058921},{"OBJECT_NAME":"NUSAT-28 (ALICE LEE)","OBJECT_ID":"2022-057R","EPOCH":"2026-03-14T22:23:57.553728","MEAN_MOTION":16.15010893,"ECCENTRICITY":0.00097576,"INCLINATION":97.5008,"RA_OF_ASC_NODE":224.58,"ARG_OF_PERICENTER":279.7743,"MEAN_ANOMALY":80.244,"EPHEMERIS_TYPE":0,"CLASSIFICATION_TYPE":"U","NORAD_CAT_ID":52747,"ELEMENT_SET_NO":999,"REV_AT_EPOCH":21289,"BSTAR":0.0013184331,"MEAN_MOTION_DOT":0.01654948,"MEAN_MOTION_DDOT":0.0023790426},{"OBJECT_NAME":"NUSAT-31 (RUBY PAYNE-S)","OBJECT_ID":"2022-057W","EPOCH":"2026-03-14T22:29:24.666720","MEAN_MOTION":15.96141706,"ECCENTRICITY":0.00052742,"INCLINATION":97.6379,"RA_OF_ASC_NODE":244.1078,"ARG_OF_PERICENTER":284.8331,"MEAN_ANOMALY":75.236,"EPHEMERIS_TYPE":0,"CLASSIFICATION_TYPE":"U","NORAD_CAT_ID":52752,"ELEMENT_SET_NO":999,"REV_AT_EPOCH":21280,"BSTAR":0.0012211917,"MEAN_MOTION_DOT":0.00499487,"MEAN_MOTION_DDOT":0.00010490813},{"OBJECT_NAME":"STARLINK-4038","OBJECT_ID":"2022-083U","EPOCH":"2026-03-14T22:00:01.999584","MEAN_MOTION":15.99702687,"ECCENTRICITY":0.00103907,"INCLINATION":53.2003,"RA_OF_ASC_NODE":93.3534,"ARG_OF_PERICENTER":30.9378,"MEAN_ANOMALY":117.5996,"EPHEMERIS_TYPE":0,"CLASSIFICATION_TYPE":"U","NORAD_CAT_ID":53150,"ELEMENT_SET_NO":999,"REV_AT_EPOCH":590,"BSTAR":0.0010456312,"MEAN_MOTION_DOT":0.00539776,"MEAN_MOTION_DDOT":0.0001381565},{"OBJECT_NAME":"STARLINK-4404","OBJECT_ID":"2022-084G","EPOCH":"2026-03-14T22:00:01.999584","MEAN_MOTION":15.95276194,"ECCENTRICITY":8.696e-5,"INCLINATION":97.6101,"RA_OF_ASC_NODE":160.511,"ARG_OF_PERICENTER":19.3969,"MEAN_ANOMALY":110.7027,"EPHEMERIS_TYPE":0,"CLASSIFICATION_TYPE":"U","NORAD_CAT_ID":53195,"ELEMENT_SET_NO":999,"REV_AT_EPOCH":595,"BSTAR":0.0014770876,"MEAN_MOTION_DOT":0.00575724,"MEAN_MOTION_DDOT":0.00013919684}]
